Addr1,Addr2,City,Provice,Postcode,Country
205 Swanston Street,,Melbourne,Victoria,3000,AU
Tenancy 69,Lower Grnd Flr Queen Victoria Bldg,Sydney,New South Wales,2000,AU
14 Martin Place,#31,Sydney,New South Wales,2000,AU
87 Market Street,#385,Sydney,New South Wales,2000,AU
301 George Street,,Sydney,New South Wales,2000,AU
235 Bourke Street,,Melbourne,Victoria,3000,AU
154 Russell Street,,Melbourne,Victoria,3000,AU
205 Swanston Street,,Melbourne,Victoria,3000,AU
82 Elizabeth Street,,Melbourne,Victoria,3000,AU
385 Bourke Street,,Melbourne,Victoria,3000,AU
154 Russell Street,,Melbourne,Victoria,3000,AU
324 Queen Street,,Brisbane,Queensland,4000,AU
226 Queen Street,,Brisbane,Queensland,4000,AU
Ipswich Road,,Brisbane,Queensland,4102,AU
205 Swanston Street,,Melbourne,Victoria,3000,AU
205 Swanston Street,,Melbourne,Victoria,3000,AU
35 Strathalbyn Rd,,Aldgate, SA,5154,AU
85 Finlayson St,,Rosanna, VIC,3084,AU
9 Chauvel Ct,,Kiara, WA,6054,AU
22 Oxford St,, Mittagong,NSW,2575,AU
21 Chingford St,,Fairfield,VIC,3078,AU
26 Barega Cl,,Buff Point, NSW,2262,AU
25 Cooksland Crs,,North Lakes,QLD,4509,AU
29 Shantalla Crs,,Yass, NSW,2582,AU
38 Acacia St,,Barcaldine, QLD,4725,AU
16 Tupia Pl,,Kings Langley, NSW,2147,AU
131 Wallabadah Valley Rd,,Laguna,NSW,2325,AU
1671 Botany Rd,,Botany,NSW,2019,AU
5 Pollina Cl,,Hampton Park,VIC,3976,AU
2 Mugga Way,,Tweed Heads,NSW,2485,AU
71 Walsgott St,,North Geelong,VIC,3215,AU
161 Sussex St,,Sydney,NSW,2001,AU
14 The Avenue,,North Sydney,NSW,2060,AU
233 Macquarie St,,Sydney,NSW,2000,AU
50 Park St,,Sydney,NSW,2000,AU
Mobile Service,1 Farrer Pl, Sydney,NSW,2000,AU
100 Gloucester St,,Sydney,NSW,2000,AU
